NORAD_CAT_ID,OBJECT_NAME,OBJECT_TYPE,EPOCH,MEAN_MOTION,ECCENTRICITY,INCLINATION,RA_OF_ASC_NODE,ARG_OF_PERICENTER,MEAN_ANOMALY,BSTAR,MEAN_MOTION_DOT,MEAN_MOTION_DDOT,TLE_LINE0,TLE_LINE1,TLE_LINE2,SEMIMAJOR_AXIS,PERIOD,APOGEE,PERIGEE,DECAYED
51956.0,STARLINK-3700,PAYLOAD,2024-01-16 05:31:16,15.08034179,0.0001308,53.0551,303.5311,92.2897,267.8242,-5.3745e-05,-1.123e-05,0.0,0 STARLINK-3700,1 51956U 22025A   24016.23005129 -.00001123  00000-0 -53745-4 0  9999,2 51956  53.0551 303.5311 0001308  92.2897 267.8242 15.08034179102891,6920.345,95.489,543.115,541.304,0.0
51956.0,STARLINK-3700,PAYLOAD,2024-01-17 02:11:58,15.0799332,0.0001961,53.0555,299.6549,83.2242,276.8971,0.0011522,0.0001768,0.0,0 STARLINK-3700,1 51956U 22025A   24017.09165171  .00017680  00000-0  11522-2 0  9996,2 51956  53.0555 299.6549 0001961  83.2242 276.8971 15.07993320104119,6920.47,95.491,543.692,540.977,0.0
51956.0,STARLINK-3700,PAYLOAD,2024-01-17 22:52:37,15.0802735,0.00015,53.0541,295.7775,89.4445,270.6717,0.00015633,2.148e-05,0.0,0 STARLINK-3700,1 51956U 22025A   24017.95321131  .00002148  00000-0  15633-3 0  9992,2 51956  53.0541 295.7775 0001500  89.4445 270.6717 15.08027350103159,6920.365,95.489,543.269,541.192,0.0
51956.0,STARLINK-3700,PAYLOAD,2024-01-18 02:03:29,15.0803153,0.0001648,53.0546,295.1803,77.2734,282.8439,0.00020324,2.88e-05,0.0,0 STARLINK-3700,1 51956U 22025A   24018.08576029  .00002880  00000-0  20324-3 0  9991,2 51956  53.0546 295.1803 0001648  77.2734 282.8439 15.08031530104263,6920.353,95.489,543.358,541.077,0.0
51956.0,STARLINK-3700,PAYLOAD,2024-01-18 21:08:43,15.0802844,0.0001581,53.054,291.602,88.0454,272.0717,-2.7982e-05,-7.22e-06,0.0,0 STARLINK-3700,1 51956U 22025A   24018.88106361 -.00000722  00000-0 -27982-4 0  9990,2 51956  53.0540 291.6020 0001581  88.0454 272.0717 15.08028440103292,6920.362,95.489,543.321,541.133,0.0
51956.0,STARLINK-3700,PAYLOAD,2024-01-19 00:19:35,15.08037216,0.0001441,53.0543,291.0062,101.015,259.1002,5.5109e-05,5.72e-06,0.0,0 STARLINK-3700,1 51956U 22025A   24019.01360828  .00000572  00000-0  55109-4 0  9999,2 51956  53.0543 291.0062 0001441 101.0150 259.1002 15.08037216103316,6920.335,95.488,543.197,541.203,0.0
51956.0,STARLINK-3700,PAYLOAD,2024-01-19 22:35:42,15.08035309,0.0001826,53.0541,286.8336,60.2446,299.8726,9.5167e-05,1.196e-05,0.0,0 STARLINK-3700,1 51956U 22025A   24019.94146020  .00001196  00000-0  95167-4 0  9998,2 51956  53.0541 286.8336 0001826  60.2446 299.8726 15.08035309103451,6920.341,95.488,543.47,540.942,0.0
51956.0,STARLINK-3700,PAYLOAD,2024-01-20 03:21:59,15.08042963,0.0001594,53.0555,285.9323,86.2159,273.9013,0.00013692,1.847e-05,0.0,0 STARLINK-3700,1 51956U 22025A   24020.14027581  .00001847  00000-0  13692-3 0  9997,2 51956  53.0555 285.9323 0001594  86.2159 273.9013 15.08042963104573,6920.318,95.488,543.286,541.08,0.0
51956.0,STARLINK-3700,PAYLOAD,2024-01-20 17:40:56,15.08034961,0.0001932,53.0583,283.2386,123.638,236.4794,-6.0484e-05,-1.228e-05,0.0,0 STARLINK-3700,1 51956U 22025A   24020.73675950 -.00001228  00000-0 -60484-4 0  9998,2 51956  53.0583 283.2386 0001932 123.6380 236.4794 15.08034961104661,6920.342,95.489,543.544,540.87,0.0
51956.0,STARLINK-3700,PAYLOAD,2024-01-20 20:51:47,15.08036872,0.0002207,53.0553,282.6473,131.1893,228.9287,5.5801e-06,-1.99e-06,0.0,0 STARLINK-3700,1 51956U 22025A   24020.86930504 -.00000199  00000-0  55801-5 0  9994,2 51956  53.0553 282.6473 0002207 131.1893 228.9287 15.08036872103594,6920.336,95.488,543.729,540.674,0.0
51956.0,STARLINK-3700,PAYLOAD,2024-01-21 17:32:28,15.08032595,0.0001332,53.0539,278.7753,108.2132,251.9003,3.4921e-05,2.58e-06,0.0,0 STARLINK-3700,1 51956U 22025A   24021.73088468  .00000258  00000-0  34921-4 0  9998,2 51956  53.0539 278.7753 0001332 108.2132 251.9003 15.08032595104810,6920.349,95.489,543.136,541.293,0.0
51956.0,STARLINK-3700,PAYLOAD,2024-01-21 22:18:46,15.08035235,0.0001416,53.0545,277.8808,95.4172,264.698,2.0216e-05,2.9e-07,0.0,0 STARLINK-3700,1 51956U 22025A   24021.92970873  .00000029  00000-0  20216-4 0  9997,2 51956  53.0545 277.8808 0001416  95.4172 264.6980 15.08035235103753,6920.341,95.488,543.186,541.226,0.0
51956.0,STARLINK-3700,PAYLOAD,2024-01-21 23:54:12,15.08036173,0.0001517,53.0547,277.5829,97.1231,262.9931,3.231e-05,2.17e-06,0.0,0 STARLINK-3700,1 51956U 22025A   24021.99598270  .00000217  00000-0  32310-4 0  9998,2 51956  53.0547 277.5829 0001517  97.1231 262.9931 15.08036173103762,6920.338,95.488,543.253,541.154,0.0
51956.0,STARLINK-3700,PAYLOAD,2024-01-22 18:59:27,15.08025835,0.0001512,53.0537,274.0033,97.9226,262.1936,8.6322e-05,1.058e-05,0.0,0 STARLINK-3700,1 51956U 22025A   24022.79128960  .00001058  00000-0  86322-4 0  9998,2 51956  53.0537 274.0033 0001512  97.9226 262.1936 15.08025835104971,6920.37,95.489,543.281,541.189,0.0
51956.0,STARLINK-3700,PAYLOAD,2024-01-22 22:10:19,15.08026729,0.0001449,53.0538,273.4063,103.8958,256.2193,8.5851e-05,1.051e-05,0.0,0 STARLINK-3700,1 51956U 22025A   24022.92383813  .00001051  00000-0  85851-4 0  9992,2 51956  53.0538 273.4063 0001449 103.8958 256.2193 15.08026729103900,6920.367,95.489,543.235,541.23,0.0
51956.0,STARLINK-3700,PAYLOAD,2024-01-23 20:26:25,15.08036039,0.0001476,53.0542,269.2283,105.5566,254.5587,0.00011156,1.452e-05,0.0,0 STARLINK-3700,1 51956U 22025A   24023.85168110  .00001452  00000-0  11156-3 0  9997,2 51956  53.0542 269.2283 0001476 105.5566 254.5587 15.08036039104045,6920.339,95.488,543.225,541.182,0.0
51956.0,STARLINK-3700,PAYLOAD,2024-01-23 23:37:17,15.08040006,0.0001389,53.0545,268.6323,96.0757,264.0391,0.00014219,1.929e-05,0.0,0 STARLINK-3700,1 51956U 22025A   24023.98422821  .00001929  00000-0  14219-3 0  9995,2 51956  53.0545 268.6323 0001389  96.0757 264.0391 15.08040006105156,6920.327,95.488,543.153,541.23,0.0
51956.0,STARLINK-3700,PAYLOAD,2024-01-24 20:17:57,15.08037762,0.000142,53.055,264.7568,71.6136,288.5008,0.0001273,1.697e-05,0.0,0 STARLINK-3700,1 51956U 22025A   24024.84580529  .00001697  00000-0  12730-3 0  9999,2 51956  53.0550 264.7568 0001420  71.6136 288.5008 15.08037762105281,6920.334,95.488,543.181,541.216,0.0
51956.0,STARLINK-3700,PAYLOAD,2024-01-24 21:53:23,15.08037762,0.0001431,53.0548,264.4587,71.535,288.5795,0.00012375,1.642e-05,0.0,0 STARLINK-3700,1 51956U 22025A   24024.91207966  .00001642  00000-0  12375-3 0  9993,2 51956  53.0548 264.4587 0001431  71.5350 288.5795 15.08037762104209,6920.334,95.488,543.189,541.208,0.0
51956.0,STARLINK-3700,PAYLOAD,2024-01-24 23:28:49,15.08040394,0.0001468,53.0551,264.1596,71.8387,288.2762,0.00013999,1.895e-05,0.0,0 STARLINK-3700,1 51956U 22025A   24024.97835230  .00001895  00000-0  13999-3 0  9993,2 51956  53.0551 264.1596 0001468  71.8387 288.2762 15.08040394104210,6920.326,95.488,543.206,541.175,0.0
51956.0,STARLINK-3700,PAYLOAD,2024-01-25 20:09:30,15.08029069,0.0001697,53.0555,260.2809,60.8221,299.2939,-5.1909e-06,-3.67e-06,0.0,0 STARLINK-3700,1 51956U 22025A   24025.83993862 -.00000367  00000-0 -51909-5 0  9995,2 51956  53.0555 260.2809 0001697  60.8221 299.2939 15.08029069105436,6920.36,95.489,543.4,541.051,0.0
51956.0,STARLINK-3700,PAYLOAD,2024-01-25 21:44:56,15.08029599,0.0001664,53.0552,259.982,65.8535,294.2629,-2.7877e-06,-3.29e-06,0.0,0 STARLINK-3700,1 51956U 22025A   24025.90621272 -.00000329  00000-0 -27877-5 0  9991,2 51956  53.0552 259.9820 0001664  65.8535 294.2629 15.08029599104357,6920.359,95.489,543.375,541.072,0.0
51956.0,STARLINK-3700,PAYLOAD,2024-01-26 20:01:02,15.08037559,0.0001311,53.0549,255.8046,106.2347,253.8787,3.0528e-05,1.89e-06,0.0,0 STARLINK-3700,1 51956U 22025A   24026.83405372  .00000189  00000-0  30528-4 0  9993,2 51956  53.0549 255.8046 0001311 106.2347 253.8787 15.08037559105585,6920.334,95.488,543.106,541.292,0.0
51956.0,STARLINK-3700,PAYLOAD,2024-01-27 21:28:00,15.08035448,0.0001377,53.0548,251.0314,105.9342,254.1799,0.00014931,2.04e-05,0.0,0 STARLINK-3700,1 51956U 22025A   24027.89445173  .00002040  00000-0  14931-3 0  9990,2 51956  53.0548 251.0314 0001377 105.9342 254.1799 15.08035448104652,6920.341,95.488,543.159,541.253,0.0
51956.0,STARLINK-3700,PAYLOAD,2024-01-28 00:38:52,15.08035312,0.000133,53.0542,250.437,98.5741,261.5399,0.0001517,2.077e-05,0.0,0 STARLINK-3700,1 51956U 22025A   24028.02700217  .00002077  00000-0  15170-3 0  9995,2 51956  53.0542 250.4370 0001330  98.5741 261.5399 15.08035312105761,6920.341,95.488,543.126,541.286,0.0
51956.0,STARLINK-3700,PAYLOAD,2024-01-28 19:44:07,15.08028619,0.0001678,53.0551,246.8548,112.3632,247.7536,1.3501e-05,-7.6e-07,0.0,0 STARLINK-3700,1 51956U 22025A   24028.82230937 -.00000076  00000-0  13501-4 0  9995,2 51956  53.0551 246.8548 0001678 112.3632 247.7536 15.08028619105880,6920.362,95.489,543.388,541.065,0.0
51956.0,STARLINK-3700,PAYLOAD,2024-01-28 21:19:33,15.08027159,0.0001529,53.0551,246.557,104.2187,255.8972,-1.5592e-06,-3.1e-06,0.0,0 STARLINK-3700,1 51956U 22025A   24028.88858585 -.00000310  00000-0 -15592-5 0  9991,2 51956  53.0551 246.5570 0001529 104.2187 255.8972 15.08027159104805,6920.366,95.489,543.289,541.173,0.0
51956.0,STARLINK-3700,PAYLOAD,2024-01-29 14:49:21,15.08025222,0.0001507,53.0549,243.28,113.6991,246.4157,0.00016099,2.221e-05,0.0,0 STARLINK-3700,1 51956U 22025A   24029.61760639  .00002221  00000-0  16099-3 0  9997,2 51956  53.0549 243.2800 0001507 113.6991 246.4157 15.08025222104917,6920.372,95.489,543.28,541.194,0.0
51956.0,STARLINK-3700,PAYLOAD,2024-01-30 14:40:53,15.08030149,0.000121,53.0542,238.8063,90.1317,269.9811,7.5976e-05,8.97e-06,0.0,0 STARLINK-3700,1 51956U 22025A   24030.61173341  .00000897  00000-0  75976-4 0  9994,2 51956  53.0542 238.8063 0001210  90.1317 269.9811 15.08030149105061,6920.357,95.489,543.059,541.385,0.0
51956.0,STARLINK-3700,PAYLOAD,2024-01-30 19:27:12,15.08027561,0.0001219,53.0538,237.9117,79.9739,280.1388,4.6873e-05,4.44e-06,0.0,0 STARLINK-3700,1 51956U 22025A   24030.81056129  .00000444  00000-0  46873-4 0  9992,2 51956  53.0538 237.9117 0001219  79.9739 280.1388 15.08027561106180,6920.365,95.489,543.073,541.386,0.0
